OBJECT B                
1 51825U 22019B   25134.82104133  .00021813  00000+0  55648-3 0  9997
2 51825  97.3861 211.2136 0011985 139.1135 221.1012 15.39455137177939
